NORAD_CAT_ID,OBJECT_NAME,OBJECT_TYPE,EPOCH,MEAN_MOTION,ECCENTRICITY,INCLINATION,RA_OF_ASC_NODE,ARG_OF_PERICENTER,MEAN_ANOMALY,BSTAR,MEAN_MOTION_DOT,MEAN_MOTION_DDOT,TLE_LINE0,TLE_LINE1,TLE_LINE2,SEMIMAJOR_AXIS,PERIOD,APOGEE,PERIGEE,DECAYED
49760.0,STARLINK-3199,PAYLOAD,2022-12-11 17:26:31,15.08814185,0.0001955,53.2181,54.1454,35.9363,324.176,0.0006307999999999,9.758e-05,0.0,0 STARLINK-3199,1 49760U 21115AN  22345.72675625  .00009758  00000-0  63080-3 0  9991,2 49760  53.2181  54.1454 0001955  35.9363 324.1760 15.08814185 56948,6917.959,95.439,541.177,538.472,0.0
49760.0,STARLINK-3199,PAYLOAD,2022-12-12 10:55:45,15.08851552,0.0002337,53.2175,50.8762,30.1288,329.9838,0.00025929,3.842e-05,0.0,0 STARLINK-3199,1 49760U 21115AN  22346.45539307  .00003842  00000-0  25929-3 0  9996,2 49760  53.2175  50.8762 0002337  30.1288 329.9838 15.08851552 58168,6917.845,95.437,541.327,538.0930000000002,0.0
49760.0,STARLINK-3199,PAYLOAD,2022-12-12 15:41:55,15.08846347,0.000305,53.2169,49.9875,26.0846,334.03,0.00021994,3.214e-05,0.0,0 STARLINK-3199,1 49760U 21115AN  22346.65411744  .00003214  00000-0  21994-3 0  9993,2 49760  53.2169  49.9875 0003050  26.0846 334.0300 15.08846347 58192,6917.861,95.437,541.836,537.616,0.0
49760.0,STARLINK-3199,PAYLOAD,2022-12-13 10:46:32,15.08852537,0.0002416,53.2163,46.4179,31.327,328.7865,-0.00011327,-2.091e-05,0.0,0 STARLINK-3199,1 49760U 21115AN  22347.44898735 -.00002091  00000-0 -11327-3 0  9993,2 49760  53.2163  46.4179 0002416  31.3270 328.7865 15.08852537 57205,6917.842,95.437,541.378,538.036,0.0
49760.0,STARLINK-3199,PAYLOAD,2022-12-14 04:15:47,15.08838035,0.0002403,53.2172,43.1459,29.7047,330.4081,4.9552e-06,-2.1e-06,0.0,0 STARLINK-3199,1 49760U 21115AN  22348.17763597 -.00000210  00000-0  49552-5 0  9994,2 49760  53.2172  43.1459 0002403  29.7047 330.4081 15.08838035 58421,6917.886,95.438,541.414,538.089,0.0
49760.0,STARLINK-3199,PAYLOAD,2022-12-14 10:37:19,15.08850064,0.0002475,53.2174,41.9563,32.3756,327.7388,-7.675399999999999e-05,-1.51e-05,0.0,0 STARLINK-3199,1 49760U 21115AN  22348.44258981 -.00001510  00000-0 -76754-4 0  9998,2 49760  53.2174  41.9563 0002475  32.3756 327.7388 15.08850064 58460,6917.85,95.437,541.427,538.002,0.0
49760.0,STARLINK-3199,PAYLOAD,2022-12-14 20:09:38,15.08839771,0.0002424,53.2172,40.1714,31.7288,328.385,1.8074e-05,-1e-08,0.0,0 STARLINK-3199,1 49760U 21115AN  22348.84003320 -.00000001  00000-0  18074-4 0  9991,2 49760  53.2172  40.1714 0002424  31.7288 328.3850 15.08839771 57411,6917.880999999999,95.438,541.423,538.069,0.0
49760.0,STARLINK-3199,PAYLOAD,2022-12-15 13:38:53,15.08837904,0.0002416,53.2168,36.9002,32.2818,327.8322,1.3334e-05,-7.6e-07,0.0,0 STARLINK-3199,1 49760U 21115AN  22349.56867497 -.00000076  00000-0  13334-4 0  9990,2 49760  53.2168  36.9002 0002416  32.2818 327.8322 15.08837904 57521,6917.887,95.438,541.423,538.08,0.0
49760.0,STARLINK-3199,PAYLOAD,2022-12-15 20:00:25,15.08839517,0.0002477,53.217,35.7109,32.1807,327.9336,0.00011164,1.489e-05,0.0,0 STARLINK-3199,1 49760U 21115AN  22349.83363175  .00001489  00000-0  11164-3 0  9990,2 49760  53.2170  35.7109 0002477  32.1807 327.9336 15.08839517 57565,6917.882,95.438,541.46,538.033,0.0
49760.0,STARLINK-3199,PAYLOAD,2022-12-16 03:57:21,15.08839051,0.0002426,53.2172,34.2239,33.646,326.4686,5.9979e-05,6.66e-06,0.0,0 STARLINK-3199,1 49760U 21115AN  22350.16483439  .00000666  00000-0  59979-4 0  9997,2 49760  53.2172  34.2239 0002426  33.6460 326.4686 15.08839051 58724,6917.8830000000025,95.438,541.427,538.07,0.0
49760.0,STARLINK-3199,PAYLOAD,2022-12-16 11:54:17,15.08842323,0.0002556,53.2168,32.7385,27.238000000000003,332.8746,0.00010658,1.408e-05,0.0,0 STARLINK-3199,1 49760U 21115AN  22350.49603116  .00001408  00000-0  10658-3 0  9994,2 49760  53.2168  32.7385 0002556  27.2380 332.8746 15.08842323 57664,6917.873000000001,95.437,541.506,537.97,0.0
49760.0,STARLINK-3199,PAYLOAD,2022-12-16 19:51:12,15.08840542,0.0002441,53.2164,31.2512,29.8372,330.2759,5.4433e-05,5.78e-06,0.0,0 STARLINK-3199,1 49760U 21115AN  22350.82723308  .00000578  00000-0  54433-4 0  9994,2 49760  53.2164  31.2512 0002441  29.8372 330.2759 15.08840542 57711,6917.879,95.438,541.432,538.055,0.0
49760.0,STARLINK-3199,PAYLOAD,2022-12-17 08:34:18,15.08836664,0.0002427,53.2167,28.8709,27.8437,332.2684,5.371e-05,5.66e-06,0.0,0 STARLINK-3199,1 49760U 21115AN  22351.35715551  .00000566  00000-0  53710-4 0  9998,2 49760  53.2167  28.8709 0002427  27.8437 332.2684 15.08836664 57795,6917.891,95.438,541.435,538.077,0.0
49760.0,STARLINK-3199,PAYLOAD,2022-12-18 10:00:29,15.08832909,0.0002575,53.2173,24.1141,31.7522,328.3625,-6.6971e-05,-1.354e-05,0.0,0 STARLINK-3199,1 49760U 21115AN  22352.41700470 -.00001354  00000-0 -66971-4 0  9991,2 49760  53.2173  24.1141 0002575  31.7522 328.3625 15.08832909 59065,6917.901999999999,95.438,541.548,537.986,0.0
49760.0,STARLINK-3199,PAYLOAD,2022-12-18 19:32:47,15.08842669,0.0002597,53.2186,22.3291,33.6915,326.4241,-7.941300000000001e-05,-1.552e-05,0.0,0 STARLINK-3199,1 49760U 21115AN  22352.81443926 -.00001552  00000-0 -79413-4 0  9990,2 49760  53.2186  22.3291 0002597  33.6915 326.4241 15.08842669 58017,6917.871999999999,95.437,541.534,537.941,0.0
49760.0,STARLINK-3199,PAYLOAD,2022-12-19 08:15:53,15.08834098,0.0002559,53.2182,19.9501,33.3652,326.7501,2.6729e-05,1.37e-06,0.0,0 STARLINK-3199,1 49760U 21115AN  22353.34436498  .00000137  00000-0  26729-4 0  9993,2 49760  53.2182  19.9501 0002559  33.3652 326.7501 15.08834098 58099,6917.898,95.438,541.534,537.993,0.0
49760.0,STARLINK-3199,PAYLOAD,2022-12-19 19:23:34,15.0884055,0.0002414,53.2197,17.8674,42.7804,317.3376,0.00014155,1.965e-05,0.0,0 STARLINK-3199,1 49760U 21115AN  22353.80803799  .00001965  00000-0  14155-3 0  9995,2 49760  53.2197  17.8674 0002414  42.7804 317.3376 15.08840550 58160,6917.879,95.438,541.414,538.0740000000002,0.0
49760.0,STARLINK-3199,PAYLOAD,2022-12-20 11:17:24,15.08854107,0.0002725,53.2176,14.8949,29.8052,330.3095,0.0001525,2.14e-05,0.0,0 STARLINK-3199,1 49760U 21115AN  22354.47042799  .00002140  00000-0  15250-3 0  9997,2 49760  53.2176  14.8949 0002725  29.8052 330.3095 15.08854107 59375,6917.837,95.437,541.587,537.817,0.0
49760.0,STARLINK-3199,PAYLOAD,2022-12-21 11:08:14,15.08827383,0.0002597,53.2179,10.4324,32.5609,327.5543,-7.1406e-05,-1.424e-05,0.0,0 STARLINK-3199,1 49760U 21115AN  22355.46405335 -.00001424  00000-0 -71406-4 0  9998,2 49760  53.2179  10.4324 0002597  32.5609 327.5543 15.08827383 59522,6917.919,95.438,541.581,537.987,0.0
49760.0,STARLINK-3199,PAYLOAD,2022-12-22 01:26:41,15.08838042,0.0002666,53.2176,7.7584,29.3928,330.7214,-4.7893e-05,-1.051e-05,0.0,0 STARLINK-3199,1 49760U 21115AN  22356.06020732 -.00001051  00000-0 -47893-4 0  9998,2 49760  53.2176   7.7584 0002666  29.3928 330.7214 15.08838042 59616,6917.886,95.438,541.596,537.9069999999998,0.0
49760.0,STARLINK-3199,PAYLOAD,2022-12-22 07:48:14,15.08832563,0.0002671,53.2175,6.569,29.6564,330.4579,-8.2946e-05,-1.608e-05,0.0,0 STARLINK-3199,1 49760U 21115AN  22356.32517303 -.00001608  00000-0 -82946-4 0  9998,2 49760  53.2175   6.5690 0002671  29.6564 330.4579 15.08832563 58549,6917.903,95.438,541.616,537.92,0.0
49760.0,STARLINK-3199,PAYLOAD,2022-12-22 17:20:33,15.08840906,0.0002694,53.218,4.7846,31.0337,329.0814,-3.7704e-05,-8.89e-06,0.0,0 STARLINK-3199,1 49760U 21115AN  22356.72260772 -.00000889  00000-0 -37704-4 0  9999,2 49760  53.2180   4.7846 0002694  31.0337 329.0814 15.08840906 58601,6917.878000000002,95.437,541.606,537.879,0.0
49760.0,STARLINK-3199,PAYLOAD,2022-12-23 01:17:29,15.08827019,0.0002565,53.2171,3.2985,28.6117,331.5016,0.00013802,1.908e-05,0.0,0 STARLINK-3199,1 49760U 21115AN  22357.05381339  .00001908  00000-0  13802-3 0  9992,2 49760  53.2171   3.2985 0002565  28.6117 331.5016 15.08827019 59764,6917.92,95.438,541.56,538.011,0.0
49760.0,STARLINK-3199,PAYLOAD,2022-12-23 10:49:48,15.08827238,0.0002595,53.217,1.5142,29.101,331.0126,0.00012323,1.673e-05,0.0,0 STARLINK-3199,1 49760U 21115AN  22357.45125703  .00001673  00000-0  12323-3 0  9993,2 49760  53.2170   1.5142 0002595  29.1010 331.0126 15.08827238 58714,6917.919,95.438,541.58,537.989,0.0
49760.0,STARLINK-3199,PAYLOAD,2022-12-23 17:11:20,15.08832965,0.00026,53.2171,0.325,29.399,330.7148,0.0001761999999999,2.516e-05,0.0,0 STARLINK-3199,1 49760U 21115AN  22357.71621382  .00002516  00000-0  17620-3 0  9998,2 49760  53.2171   0.3250 0002600  29.3990 330.7148 15.08832965 58755,6917.901999999999,95.438,541.566,537.9680000000002,0.0
49760.0,STARLINK-3199,PAYLOAD,2022-12-23 23:32:52,15.088425199999998,0.0002577,53.2176,359.1347,28.1984,331.9147,0.00018211,2.611e-05,0.0,0 STARLINK-3199,1 49760U 21115AN  22357.98116832  .00002611  00000-0  18211-3 0  9999,2 49760  53.2176 359.1347 0002577  28.1984 331.9147 15.08842520 59903,6917.873000000001,95.437,541.52,537.955,0.0
49760.0,STARLINK-3199,PAYLOAD,2022-12-24 10:40:34,15.08840694,0.0002628999999999,53.2178,357.0531,29.8976,330.2165,0.00019578,2.829e-05,0.0,0 STARLINK-3199,1 49760U 21115AN  22358.44484953  .00002829  00000-0  19578-3 0  9991,2 49760  53.2178 357.0531 0002629  29.8976 330.2165 15.08840694 58860,6917.878000000002,95.438,541.562,537.925,0.0
49760.0,STARLINK-3199,PAYLOAD,2022-12-24 17:02:07,15.08839837,0.000262,53.2176,355.8636,28.2269,331.8865,0.00011868,1.601e-05,0.0,0 STARLINK-3199,1 49760U 21115AN  22358.70981196  .00001601  00000-0  11868-3 0  9992,2 49760  53.2176 355.8636 0002620  28.2269 331.8865 15.08839837 60010,6917.880999999999,95.438,541.558,537.933,0.0
49760.0,STARLINK-3199,PAYLOAD,2022-12-25 08:55:59,15.08837714,0.0002627,53.2175,352.8898,28.0073,332.106,9.0266e-05,1.148e-05,0.0,0 STARLINK-3199,1 49760U 21115AN  22359.37221437  .00001148  00000-0  90266-4 0  9997,2 49760  53.2175 352.8898 0002627  28.0073 332.1060 15.08837714 59004,6917.887,95.438,541.57,537.935,0.0
